{
    "links": {
        "self": "http://www.neowsapp.com/rest/v1/neo/3449133?api_key=iIulBulltgU6a56xZRHN4H3l9WmuAYTsLGpBGhQ2"
    },
    "id": "3449133",
    "neo_reference_id": "3449133",
    "name": "(2009 EJ1)",
    "designation": "2009 EJ1",
    "nasa_jpl_url": "http://ssd.jpl.nasa.gov/sbdb.cgi?sstr=3449133",
    "absolute_magnitude_h": 28.4,
    "estimated_diameter": {
        "kilometers": {
            "estimated_diameter_min": 0.0055533491,
            "estimated_diameter_max": 0.0124176661
        },
        "meters": {
            "estimated_diameter_min": 5.5533491158,
            "estimated_diameter_max": 12.4176661257
        },
        "miles": {
            "estimated_diameter_min": 0.0034506901,
            "estimated_diameter_max": 0.0077159776
        },
        "feet": {
            "estimated_diameter_min": 18.2196499131,
            "estimated_diameter_max": 40.740375732
        }
    },
    "is_potentially_hazardous_asteroid": false,
    "close_approach_data": [
        {
            "close_approach_date": "2009-02-27",
            "close_approach_date_full": "2009-Feb-27 09:56",
            "epoch_date_close_approach": 1235728560000,
            "relative_velocity": {
                "kilometers_per_second": "10.9286892204",
                "kilometers_per_hour": "39343.2811934213",
                "miles_per_hour": "24446.3849171011"
            },
            "miss_distance": {
                "astronomical": "0.0006311422",
                "lunar": "0.2455143158",
                "kilometers": "94417.528787114",
                "miles": "58668.3319016132"
            },
            "orbiting_body": "Moon"
        },
        {
            "close_approach_date": "2009-02-27",
            "close_approach_date_full": "2009-Feb-27 19:48",
            "epoch_date_close_approach": 1235764080000,
            "relative_velocity": {
                "kilometers_per_second": "11.4766286495",
                "kilometers_per_hour": "41315.8631383159",
                "miles_per_hour": "25672.0706261386"
            },
            "miss_distance": {
                "astronomical": "0.0004120053",
                "lunar": "0.1602700617",
                "kilometers": "61635.115308711",
                "miles": "38298.2847377718"
            },
            "orbiting_body": "Earth"
        }
    ],
    "orbital_data": {
        "orbit_id": "6",
        "orbit_determination_date": "2017-04-06 09:01:05",
        "first_observation_date": "2009-03-03",
        "last_observation_date": "2009-03-03",
        "data_arc_in_days": null,
        "observations_used": 21,
        "orbit_uncertainty": "9",
        "minimum_orbit_intersection": ".000188679",
        "jupiter_tisserand_invariant": "4.231",
        "epoch_osculation": "2454893.5",
        "eccentricity": ".4745077072358704",
        "semi_major_axis": "1.598205813058364",
        "inclination": ".02508150263568171",
        "ascending_node_longitude": "312.38580836",
        "orbital_period": "737.9849170928975",
        "perihelion_distance": ".8398448370129995",
        "perihelion_argument": "148.6975206497587",
        "aphelion_distance": "2.356566789103728",
        "perihelion_time": "2454848.349003043080",
        "mean_anomaly": "22.0253267079239",
        "mean_motion": ".4878148477859517",
        "equinox": "J2000",
        "orbit_class": {
            "orbit_class_type": "APO",
            "orbit_class_description": "Near-Earth asteroid orbits which cross the Earth’s orbit similar to that of 1862 Apollo",
            "orbit_class_range": "a (semi-major axis) > 1.0 AU; q (perihelion) < 1.017 AU"
        }
    },
    "is_sentry_object": false
}